[{"OBJECT_NAME":"STARLINK-30069","OBJECT_ID":"2023-079M","EPOCH":"2026-03-08T11:34:15.947328","MEAN_MOTION":15.26726881,"ECCENTRICITY":4.69e-5,"INCLINATION":42.9986,"RA_OF_ASC_NODE":110.4464,"ARG_OF_PERICENTER":272.6695,"MEAN_ANOMALY":87.4103,"EPHEMERIS_TYPE":0,"CLASSIFICATION_TYPE":"U","NORAD_CAT_ID":56834,"ELEMENT_SET_NO":999,"REV_AT_EPOCH":15274,"BSTAR":-8.0472e-5,"MEAN_MOTION_DOT":-2.416e-5,"MEAN_MOTION_DDOT":0},{"OBJECT_NAME":"STARLINK-32680","OBJECT_ID":"2024-249Q","EPOCH":"2026-03-09T01:09:56.856672","MEAN_MOTION":15.27568104,"ECCENTRICITY":0.00021552,"INCLINATION":42.999,"RA_OF_ASC_NODE":317.8607,"ARG_OF_PERICENTER":286.6468,"MEAN_ANOMALY":73.4147,"EPHEMERIS_TYPE":0,"CLASSIFICATION_TYPE":"U","NORAD_CAT_ID":62423,"ELEMENT_SET_NO":999,"REV_AT_EPOCH":6771,"BSTAR":0.0014731017,"MEAN_MOTION_DOT":0.00040484,"MEAN_MOTION_DDOT":0}]
